NORAD_CAT_ID,OBJECT_NAME,OBJECT_TYPE,EPOCH,MEAN_MOTION,ECCENTRICITY,INCLINATION,RA_OF_ASC_NODE,ARG_OF_PERICENTER,MEAN_ANOMALY,BSTAR,MEAN_MOTION_DOT,MEAN_MOTION_DDOT,TLE_LINE0,TLE_LINE1,TLE_LINE2,SEMIMAJOR_AXIS,PERIOD,APOGEE,PERIGEE,DECAYED
56801.0,STARLINK-6087,PAYLOAD,2024-02-01 11:09:28,14.98322515,0.0002621,70.0001,98.7846,264.7481,95.3379,5.4493e-05,5.57e-06,0.0,0 STARLINK-6087,1 56801U 23078AL  24032.46491309  .00000557  00000-0  54493-4 0  9993,2 56801  70.0001  98.7846 0002621 264.7481  95.3379 14.98322515 38518,6950.216,96.107,573.903,570.259,0.0
56801.0,STARLINK-6087,PAYLOAD,2024-02-02 04:46:56,14.98332248,0.0002657,70.0004,96.9353,254.7077,105.3788,2.1909e-05,1.68e-06,0.0,0 STARLINK-6087,1 56801U 23078AL  24033.19926673  .00000168  00000-0  21909-4 0  9995,2 56801  70.0004  96.9353 0002657 254.7077 105.3788 14.98332248 38625,6950.186,96.107,573.898,570.204,0.0
56801.0,STARLINK-6087,PAYLOAD,2024-02-02 14:23:44,14.98334474,0.0002808,69.9996,95.9229,266.9028,93.181,3.9012e-05,3.73e-06,0.0,0 STARLINK-6087,1 56801U 23078AL  24033.59982444  .00000373  00000-0  39012-4 0  9999,2 56801  69.9996  95.9229 0002808 266.9028  93.1810 14.98334474 38423,6950.179,96.107,573.996,570.092,0.0
56801.0,STARLINK-6087,PAYLOAD,2024-02-03 11:13:30,14.98324145,0.0002636,70.0002,93.735,262.5024,97.5836,-3.8405e-05,-5.51e-06,0.0,0 STARLINK-6087,1 56801U 23078AL  24034.46771327 -.00000551  00000-0 -38405-4 0  9997,2 56801  70.0002  93.7350 0002636 262.5024  97.5836 14.98324145 38815,6950.211,96.107,573.908,570.244,0.0
56801.0,STARLINK-6087,PAYLOAD,2024-02-03 12:49:38,14.98323691,0.000266,70.0001,93.5667,263.4715,96.6142,-4.3989e-05,-6.18e-06,0.0,0 STARLINK-6087,1 56801U 23078AL  24034.53447397 -.00000618  00000-0 -43989-4 0  9999,2 56801  70.0001  93.5667 0002660 263.4715  96.6142 14.98323691 38564,6950.212,96.107,573.926,570.229,0.0
56801.0,STARLINK-6087,PAYLOAD,2024-02-03 14:25:46,14.98324713,0.0002679,70.0,93.3982,264.2343,95.851,-3.274e-05,-4.84e-06,0.0,0 STARLINK-6087,1 56801U 23078AL  24034.60123318 -.00000484  00000-0 -32740-4 0  9995,2 56801  70.0000  93.3982 0002679 264.2343  95.8510 14.98324713 38574,6950.209,96.107,573.936,570.212,0.0
56801.0,STARLINK-6087,PAYLOAD,2024-02-04 11:15:30,14.98334897,0.000278,69.9996,91.2096,265.9489,94.1352,8.3463e-06,7e-08,0.0,0 STARLINK-6087,1 56801U 23078AL  24035.46910439  .00000007  00000-0  83463-5 0  9996,2 56801  69.9996  91.2096 0002780 265.9489  94.1352 14.98334897 38963,6950.178,96.107,573.975,570.111,0.0
56801.0,STARLINK-6087,PAYLOAD,2024-02-04 12:51:38,14.9833538,0.0002773,69.9997,91.0413,265.8156,94.2686,1.4246e-05,7.7e-07,0.0,0 STARLINK-6087,1 56801U 23078AL  24035.53586370  .00000077  00000-0  14246-4 0  9996,2 56801  69.9997  91.0413 0002773 265.8156  94.2686 14.98335380 38719,6950.176,96.107,573.969,570.114,0.0
56801.0,STARLINK-6087,PAYLOAD,2024-02-05 04:52:59,14.98323493,0.0002772,69.9996,89.3579,263.1018,96.9826,6.0788e-06,-2e-07,0.0,0 STARLINK-6087,1 56801U 23078AL  24036.20347114 -.00000020  00000-0  60788-5 0  9994,2 56801  69.9996  89.3579 0002772 263.1018  96.9826 14.98323493 39075,6950.213,96.107,574.005,570.151,0.0
56801.0,STARLINK-6087,PAYLOAD,2024-02-05 12:53:40,14.983229,0.000285,69.9995,88.5159,266.5957,93.4876,-1.1594e-05,-2.31e-06,0.0,0 STARLINK-6087,1 56801U 23078AL  24036.53727334 -.00000231  00000-0 -11594-4 0  9991,2 56801  69.9995  88.5159 0002850 266.5957  93.4876 14.98322900 38860,6950.215,96.107,574.061,570.099,0.0
56801.0,STARLINK-6087,PAYLOAD,2024-02-05 22:30:28,14.98331752,0.0002932,69.9993,87.5054,266.3011,93.7813,2.3412e-05,1.86e-06,0.0,0 STARLINK-6087,1 56801U 23078AL  24036.93782694  .00000186  00000-0  23412-4 0  9994,2 56801  69.9993  87.5054 0002932 266.3011  93.7813 14.98331752 38927,6950.187,96.107,574.09,570.015,0.0
56801.0,STARLINK-6087,PAYLOAD,2024-02-06 03:18:52,14.98333828,0.0002976,69.9992,87.0005,266.8565,93.2254,-3.4524e-05,-5.05e-06,0.0,0 STARLINK-6087,1 56801U 23078AL  24037.13810720 -.00000505  00000-0 -34524-4 0  9992,2 56801  69.9992  87.0005 0002976 266.8565  93.2254 14.98333828 39217,6950.181,96.107,574.114,569.978,0.0
56801.0,STARLINK-6087,PAYLOAD,2024-02-06 12:55:40,14.98337357,0.000294,69.9994,85.9907,266.7747,93.3076,1.4002e-05,7.4e-07,0.0,0 STARLINK-6087,1 56801U 23078AL  24037.53866245  .00000074  00000-0  14002-4 0  9997,2 56801  69.9994  85.9907 0002940 266.7747  93.3076 14.98337357 39011,6950.17,96.107,574.078,569.992,0.0
56801.0,STARLINK-6087,PAYLOAD,2024-02-07 11:21:33,14.98330667,0.0003004,69.9993,83.6342,267.6999,92.3816,6.4241e-05,6.74e-06,0.0,0 STARLINK-6087,1 56801U 23078AL  24038.47330427  .00000674  00000-0  64241-4 0  9995,2 56801  69.9993  83.6342 0003004 267.6999  92.3816 14.98330667 39411,6950.191,96.107,574.144,569.968,0.0
56801.0,STARLINK-6087,PAYLOAD,2024-02-07 12:57:41,14.98331337,0.0002992,69.9994,83.4659,267.5855,92.4961,7.07e-05,7.51e-06,0.0,0 STARLINK-6087,1 56801U 23078AL  24038.54006361  .00000751  00000-0  70700-4 0  9993,2 56801  69.9994  83.4659 0002992 267.5855  92.4961 14.98331337 39165,6950.189,96.107,574.133,569.974,0.0
56801.0,STARLINK-6087,PAYLOAD,2024-02-08 11:23:34,14.98333739,0.0002778,69.9998,81.1104,264.1438,95.9404,-1.5877e-05,-2.82e-06,0.0,0 STARLINK-6087,1 56801U 23078AL  24039.47470323 -.00000282  00000-0 -15877-4 0  9994,2 56801  69.9998  81.1104 0002778 264.1438  95.9404 14.98333739 39563,6950.181,96.107,573.977,570.116,0.0
56801.0,STARLINK-6087,PAYLOAD,2024-02-08 12:59:42,14.98333927,0.0002778,69.9998,80.942,264.2784,95.8058,-1.3401e-05,-2.53e-06,0.0,0 STARLINK-6087,1 56801U 23078AL  24039.54146287 -.00000253  00000-0 -13401-4 0  9990,2 56801  69.9998  80.9420 0002778 264.2784  95.8058 14.98333927 39312,6950.181,96.107,573.977,570.115,0.0
56801.0,STARLINK-6087,PAYLOAD,2024-02-09 11:25:35,14.9832796,0.0002688,69.9999,78.5858,262.6579,97.4274,-1.4605e-05,-2.67e-06,0.0,0 STARLINK-6087,1 56801U 23078AL  24040.47610608 -.00000267  00000-0 -14605-4 0  9999,2 56801  69.9999  78.5858 0002688 262.6579  97.4274 14.98327960 39717,6950.199,96.107,573.932,570.196,0.0
56801.0,STARLINK-6087,PAYLOAD,2024-02-09 13:01:43,14.98329335,0.0002704,69.9999,78.4172,263.3657,96.7195,-1.7487e-06,-1.14e-06,0.0,0 STARLINK-6087,1 56801U 23078AL  24040.54286491 -.00000114  00000-0 -17487-5 0  9999,2 56801  69.9999  78.4172 0002704 263.3657  96.7195 14.98329335 39463,6950.195,96.107,573.939,570.181,0.0
56801.0,STARLINK-6087,PAYLOAD,2024-02-10 11:27:36,14.9832581,0.000269,69.9998,76.0605,264.3692,95.716,-5.0744e-05,-6.98e-06,0.0,0 STARLINK-6087,1 56801U 23078AL  24041.47750990 -.00000698  00000-0 -50744-4 0  9991,2 56801  69.9998  76.0605 0002690 264.3692  95.7160 14.98325810 39860,6950.206,96.107,573.94,570.201,0.0
56801.0,STARLINK-6087,PAYLOAD,2024-02-11 11:29:37,14.9833105,0.0002744,69.9996,73.534,263.4276,96.657,4.637e-05,4.6e-06,0.0,0 STARLINK-6087,1 56801U 23078AL  24042.47890439  .00000460  00000-0  46370-4 0  9990,2 56801  69.9996  73.5340 0002744 263.4276  96.6570 14.98331050 40011,6950.19,96.107,573.962,570.148,0.0
56801.0,STARLINK-6087,PAYLOAD,2024-02-12 11:31:38,14.98331706,0.0002737,69.9998,71.0095,263.1342,96.9505,7.7037e-05,8.26e-06,0.0,0 STARLINK-6087,1 56801U 23078AL  24043.48030248  .00000826  00000-0  77037-4 0  9996,2 56801  69.9998  71.0095 0002737 263.1342  96.9505 14.98331706 40161,6950.188,96.107,573.955,570.15,0.0
56801.0,STARLINK-6087,PAYLOAD,2024-02-13 11:33:39,14.98327073,0.000274,69.9998,68.4856,265.641,94.4436,-6.3669e-05,-8.52e-06,0.0,0 STARLINK-6087,1 56801U 23078AL  24044.48170922 -.00000852  00000-0 -63669-4 0  9998,2 56801  69.9998  68.4856 0002740 265.6410  94.4436 14.98327073 40318,6950.202,96.107,573.971,570.163,0.0
56801.0,STARLINK-6087,PAYLOAD,2024-02-14 05:11:07,14.98333611,0.0002839,69.9995,66.6332,267.8169,92.2665,-1.9259e-05,-3.23e-06,0.0,0 STARLINK-6087,1 56801U 23078AL  24045.21606335 -.00000323  00000-0 -19259-4 0  9991,2 56801  69.9995  66.6332 0002839 267.8169  92.2665 14.98333611 40425,6950.182,96.107,574.02,570.074,0.0
56801.0,STARLINK-6087,PAYLOAD,2024-02-14 11:35:39,14.98336626,0.000279,69.9996,65.9594,269.0207,91.0632,2.2044e-05,1.7e-06,0.0,0 STARLINK-6087,1 56801U 23078AL  24045.48309957  .00000170  00000-0  22044-4 0  9994,2 56801  69.9996  65.9594 0002790 269.0207  91.0632 14.98336626 40207,6950.172,96.107,573.976,570.098,0.0
56801.0,STARLINK-6087,PAYLOAD,2024-02-14 18:00:12,14.98330656,0.0002699,69.9999,65.2852,273.8855,86.1996,-3.9545e-05,-5.65e-06,0.0,0 STARLINK-6087,1 56801U 23078AL  24045.75014476 -.00000565  00000-0 -39545-4 0  9997,2 56801  69.9999  65.2852 0002699 273.8855  86.1996 14.98330656 40249,6950.191,96.107,573.932,570.18,0.0
56801.0,STARLINK-6087,PAYLOAD,2024-02-15 03:37:01,14.98318122,0.0002776,69.9997,64.2756,270.9726,89.1115,0.00010274,1.133e-05,0.0,0 STARLINK-6087,1 56801U 23078AL  24046.15070811  .00001133  00000-0  10274-3 0  9994,2 56801  69.9997  64.2756 0002776 270.9726  89.1115 14.98318122 40565,6950.23,96.108,574.024,570.165,0.0
56801.0,STARLINK-6087,PAYLOAD,2024-02-15 10:01:33,14.98326009,0.0002795,69.9996,63.6027,269.7051,90.3788,-4.8343e-06,-1.51e-06,0.0,0 STARLINK-6087,1 56801U 23078AL  24046.41774748 -.00000151  00000-0 -48343-5 0  9994,2 56801  69.9996  63.6027 0002795 269.7051  90.3788 14.98326009 40345,6950.205,96.107,574.013,570.128,0.0
56801.0,STARLINK-6087,PAYLOAD,2024-02-15 18:02:13,14.98348442,0.0002833,70.0,62.7607,274.1043,85.9792,-0.00034214,-4.175e-05,0.0,0 STARLINK-6087,1 56801U 23078AL  24046.75154095 -.00004175  00000-0 -34214-3 0  9998,2 56801  70.0000  62.7607 0002833 274.1043  85.9792 14.98348442 40656,6950.136,96.106,573.97,570.032,0.0
56801.0,STARLINK-6087,PAYLOAD,2024-02-16 03:39:01,14.98332441,0.0002804,69.9996,61.7509,268.9308,91.153,-1.071e-05,-2.21e-06,0.0,0 STARLINK-6087,1 56801U 23078AL  24047.15210365 -.00000221  00000-0 -10710-4 0  9990,2 56801  69.9996  61.7509 0002804 268.9308  91.1530 14.98332441 40718,6950.185,96.107,573.999,570.102,0.0
